CSS (TIANHE)            
1 48274U 21035A   23357.28655182  .00041146  00000+0  42316-3 0  9997
2 48274  41.4711  83.9203 0005576  41.6976 318.4288 15.64081887151409
